{"type": "FeatureCollection", "features": [ {"type": "Feature", "properties": {"norad_id": 37834, "name": "INTELSAT 18 (IS-18)", "group": "intelsat", "lat": -0.03204843856920793, "lon": -147.72095313438246, "alt_km": 35781.10319711691, "timestamp": "2025-12-10T20:49:52.228622+00:00", "meta": {"OBJECT_NAME": "INTELSAT 18 (IS-18)", "OBJECT_ID": "2011-056A", "EPOCH": "2025-12-10T11:07:33.905568", "MEAN_MOTION": 1.00271695, "ECCENTRICITY": 0.000199, "INCLINATION": 0.0186, "RA_OF_ASC_NODE": 326.5116, "ARG_OF_PERICENTER": 299.5897, "MEAN_ANOMALY": 160.2248, "EPHEMERIS_TYPE": 0, "CLASSIFICATION_TYPE": "U", "NORAD_CAT_ID": 37834, "ELEMENT_SET_NO": 999, "REV_AT_EPOCH": 5191, "BSTAR": 0, "MEAN_MOTION_DOT": 5.7e-07, "MEAN_MOTION_DDOT": 0}, "tle": {"line1": "1 37834U 11056A   25344.46358687  .00000057  00000+0  00000+0 0  9993", "line2": "2 37834   0.0186 326.5116 0001990 299.5897 160.2248  1.00271695 51914"}}, "geometry": {"type": "Point", "coordinates": [-147.72095313438246, -0.03204843856920793]}}, {"type": "Feature", "properties": {"norad_id": 38098, "name": "INTELSAT 22 (IS-22)", "group": "intelsat", "lat": 0.0186766060200945, "lon": 104.43017408604156, "alt_km": 35792.58137387083, "timestamp": "2025-12-10T20:49:52.228634+00:00", "meta": {"OBJECT_NAME": "INTELSAT 22 (IS-22)", "OBJECT_ID": "2012-011A", "EPOCH": "2025-12-10T08:41:38.596992", "MEAN_MOTION": 1.00274578, "ECCENTRICITY": 0.00017435, "INCLINATION": 0.0026, "RA_OF_ASC_NODE": 358.8456, "ARG_OF_PERICENTER": 277.0782, "MEAN_ANOMALY": 5.9524, "EPHEMERIS_TYPE": 0, "CLASSIFICATION_TYPE": "U", "NORAD_CAT_ID": 38098, "ELEMENT_SET_NO": 999, "REV_AT_EPOCH": 529, "BSTAR": 0, "MEAN_MOTION_DOT": -5.6e-07, "MEAN_MOTION_DDOT": 0}, "tle": {"line1": "1 38098U 12011A   25344.36225228 -.00000056  00000+0  00000+0 0  9991", "line2": "2 38098   0.0026 358.8456 0001743 277.0782   5.9524  1.00274578  5290"}}, "geometry": {"type": "Point", "coordinates": [104.43017408604156, 0.0186766060200945]}}, {"type": "Feature", "properties": {"norad_id": 38356, "name": "INTELSAT 19 (IS-19)", "group": "intelsat", "lat": -0.018263156257098366, "lon": -161.72992708738914, "alt_km": 35780.76033398875, "timestamp": "2025-12-10T20:49:52.228646+00:00", "meta": {"OBJECT_NAME": "INTELSAT 19 (IS-19)", "OBJECT_ID": "2012-030A", "EPOCH": "2025-12-10T10:59:58.648416", "MEAN_MOTION": 1.00271943, "ECCENTRICITY": 0.00034954, "INCLINATION": 0.0088, "RA_OF_ASC_NODE": 333.7752, "ARG_OF_PERICENTER": 293.6811, "MEAN_ANOMALY": 142.9775, "EPHEMERIS_TYPE": 0, "CLASSIFICATION_TYPE": "U", "NORAD_CAT_ID": 38356, "ELEMENT_SET_NO": 999, "REV_AT_EPOCH": 4855, "BSTAR": 0, "MEAN_MOTION_DOT": -5.2e-07, "MEAN_MOTION_DDOT": 0}, "tle": {"line1": "1 38356U 12030A   25344.45831769 -.00000052  00000+0  00000+0 0  9998", "line2": "2 38356   0.0088 333.7752 0003495 293.6811 142.9775  1.00271943 48558"}}, "geometry": {"type": "Point", "coordinates": [-161.72992708738914, -0.018263156257098366]}}, {"type": "Feature", "properties": {"norad_id": 38740, "name": "INTELSAT 20 (IS-20)", "group": "intelsat", "lat": 0.0031012079742056453, "lon": 100.77869177595942, "alt_km": 35785.288133100934, "timestamp": "2025-12-10T20:49:52.228658+00:00", "meta": {"OBJECT_NAME": "INTELSAT 20 (IS-20)", "OBJECT_ID": "2012-043A", "EPOCH": "2025-12-10T13:41:17.221344", "MEAN_MOTION": 1.00270844, "ECCENTRICITY": 0.00027289, "INCLINATION": 0.0096, "RA_OF_ASC_NODE": 91.4619, "ARG_OF_PERICENTER": 93.9433, "MEAN_ANOMALY": 167.9697, "EPHEMERIS_TYPE": 0, "CLASSIFICATION_TYPE": "U", "NORAD_CAT_ID": 38740, "ELEMENT_SET_NO": 999, "REV_AT_EPOCH": 4885, "BSTAR": 0, "MEAN_MOTION_DOT": -2e-07, "MEAN_MOTION_DDOT": 0}, "tle": {"line1": "1 38740U 12043A   25344.57033821 -.00000020  00000+0  00000+0 0  9990", "line2": "2 38740   0.0096  91.4619 0002728  93.9433 167.9697  1.00270844 48855"}}, "geometry": {"type": "Point", "coordinates": [100.77869177595942, 0.0031012079742056453]}}, {"type": "Feature", "properties": {"norad_id": 38749, "name": "INTELSAT 21 (IS-21)", "group": "intelsat", "lat": -0.016948562345712265, "lon": -25.67929053689478, "alt_km": 35784.63222035961, "timestamp": "2025-12-10T20:49:52.228669+00:00", "meta": {"OBJECT_NAME": "INTELSAT 21 (IS-21)", "OBJECT_ID": "2012-045A", "EPOCH": "2025-12-10T03:59:38.770944", "MEAN_MOTION": 1.00270223, "ECCENTRICITY": 0.00021227, "INCLINATION": 0.0158, "RA_OF_ASC_NODE": 47.3107, "ARG_OF_PERICENTER": 209.6362, "MEAN_ANOMALY": 184.11, "EPHEMERIS_TYPE": 0, "CLASSIFICATION_TYPE": "U", "NORAD_CAT_ID": 38749, "ELEMENT_SET_NO": 999, "REV_AT_EPOCH": 4862, "BSTAR": 0, "MEAN_MOTION_DOT": -2.82e-06, "MEAN_MOTION_DDOT": 0}, "tle": {"line1": "1 38749U 12045A   25344.16642096 -.00000282  00000+0  00000+0 0  9996", "line2": "2 38749   0.0158  47.3107 0002122 209.6362 184.1100  1.00270223 48626"}}, "geometry": {"type": "Point", "coordinates": [-25.67929053689478, -0.016948562345712265]}}, {"type": "Feature", "properties": {"norad_id": 38867, "name": "INTELSAT 23 (IS-23)", "group": "intelsat", "lat": -0.03765868622129591, "lon": -20.767140670106738, "alt_km": 35796.067331501414, "timestamp": "2025-12-10T20:49:52.228681+00:00", "meta": {"OBJECT_NAME": "INTELSAT 23 (IS-23)", "OBJECT_ID": "2012-057A", "EPOCH": "2025-12-09T20:10:10.491744", "MEAN_MOTION": 1.00260311, "ECCENTRICITY": 0.00020064, "INCLINATION": 0.0432, "RA_OF_ASC_NODE": 94.7791, "ARG_OF_PERICENTER": 102.2636, "MEAN_ANOMALY": 131.2856, "EPHEMERIS_TYPE": 0, "CLASSIFICATION_TYPE": "U", "NORAD_CAT_ID": 38867, "ELEMENT_SET_NO": 999, "REV_AT_EPOCH": 4805, "BSTAR": 0, "MEAN_MOTION_DOT": -2.82e-06, "MEAN_MOTION_DDOT": 0}, "tle": {"line1": "1 38867U 12057A   25343.84039921 -.00000282  00000+0  00000+0 0  9991", "line2": "2 38867   0.0432  94.7791 0002006 102.2636 131.2856  1.00260311 48055"}}, "geometry": {"type": "Point", "coordinates": [-20.767140670106738, -0.03765868622129591]}}, {"type": "Feature", "properties": {"norad_id": 39360, "name": "FM-6", "group": "intelsat", "lat": -0.009626218867153154, "lon": -83.82467681525891, "alt_km": 35789.35477725631, "timestamp": "2025-12-10T20:49:52.228693+00:00", "meta": {"OBJECT_NAME": "FM-6", "OBJECT_ID": "2013-058A", "EPOCH": "2025-12-10T08:50:26.824992", "MEAN_MOTION": 1.00269305, "ECCENTRICITY": 0.00028874, "INCLINATION": 0.0067, "RA_OF_ASC_NODE": 64.4162, "ARG_OF_PERICENTER": 109.3403, "MEAN_ANOMALY": 282.0461, "EPHEMERIS_TYPE": 0, "CLASSIFICATION_TYPE": "U", "NORAD_CAT_ID": 39360, "ELEMENT_SET_NO": 999, "REV_AT_EPOCH": 4418, "BSTAR": 0, "MEAN_MOTION_DOT": -1.3e-07, "MEAN_MOTION_DDOT": 0}, "tle": {"line1": "1 39360U 13058A   25344.36836603 -.00000013  00000+0  00000+0 0  9994", "line2": "2 39360   0.0067  64.4162 0002887 109.3403 282.0461  1.00269305 44180"}}, "geometry": {"type": "Point", "coordinates": [-83.82467681525891, -0.009626218867153154]}}, {"type": "Feature", "properties": {"norad_id": 40271, "name": "INTELSAT 30 (IS-30)", "group": "intelsat", "lat": -0.028354182509996665, "lon": -62.77877615692243, "alt_km": 35791.26270216763, "timestamp": "2025-12-10T20:49:52.228704+00:00", "meta": {"OBJECT_NAME": "INTELSAT 30 (IS-30)", "OBJECT_ID": "2014-062A", "EPOCH": "2025-12-10T09:10:12.111168", "MEAN_MOTION": 1.00269194, "ECCENTRICITY": 0.00013123, "INCLINATION": 0.0161, "RA_OF_ASC_NODE": 24.5477, "ARG_OF_PERICENTER": 55.587, "MEAN_ANOMALY": 41.7075, "EPHEMERIS_TYPE": 0, "CLASSIFICATION_TYPE": "U", "NORAD_CAT_ID": 40271, "ELEMENT_SET_NO": 999, "REV_AT_EPOCH": 489, "BSTAR": 0, "MEAN_MOTION_DOT": -1.47e-06, "MEAN_MOTION_DDOT": 0}, "tle": {"line1": "1 40271U 14062A   25344.38208462 -.00000147  00000+0  00000+0 0  9999", "line2": "2 40271   0.0161  24.5477 0001312  55.5870  41.7075  1.00269194  4897"}}, "geometry": {"type": "Point", "coordinates": [-62.77877615692243, -0.028354182509996665]}}, {"type": "Feature", "properties": {"norad_id": 40333, "name": "DIRECTV 14", "group": "intelsat", "lat": -0.02509809959856232, "lon": -66.90968927267987, "alt_km": 35786.515878227234, "timestamp": "2025-12-10T20:49:52.228716+00:00", "meta": {"OBJECT_NAME": "DIRECTV 14", "OBJECT_ID": "2014-078B", "EPOCH": "2025-12-10T10:29:59.960256", "MEAN_MOTION": 1.00271517, "ECCENTRICITY": 3.711e-05, "INCLINATION": 0.0185, "RA_OF_ASC_NODE": 333.9339, "ARG_OF_PERICENTER": 216.2643, "MEAN_ANOMALY": 307.4998, "EPHEMERIS_TYPE": 0, "CLASSIFICATION_TYPE": "U", "NORAD_CAT_ID": 40333, "ELEMENT_SET_NO": 999, "REV_AT_EPOCH": 4015, "BSTAR": 0, "MEAN_MOTION_DOT": -1.22e-06, "MEAN_MOTION_DDOT": 0}, "tle": {"line1": "1 40333U 14078B   25344.43749954 -.00000122  00000+0  00000+0 0  9990", "line2": "2 40333   0.0185 333.9339 0000371 216.2643 307.4998  1.00271517 40151"}}, "geometry": {"type": "Point", "coordinates": [-66.90968927267987, -0.02509809959856232]}}, {"type": "Feature", "properties": {"norad_id": 40663, "name": "DIRECTV 15", "group": "intelsat", "lat": -0.03093738847640198, "lon": -70.55273926031981, "alt_km": 35786.708511379344, "timestamp": "2025-12-10T20:49:52.228727+00:00", "meta": {"OBJECT_NAME": "DIRECTV 15", "OBJECT_ID": "2015-026A", "EPOCH": "2025-12-10T08:12:19.163808", "MEAN_MOTION": 1.00275799, "ECCENTRICITY": 5.085e-05, "INCLINATION": 0.0413, "RA_OF_ASC_NODE": 83.8732, "ARG_OF_PERICENTER": 61.1564, "MEAN_ANOMALY": 314.5037, "EPHEMERIS_TYPE": 0, "CLASSIFICATION_TYPE": "U", "NORAD_CAT_ID": 40663, "ELEMENT_SET_NO": 999, "REV_AT_EPOCH": 3857, "BSTAR": 0, "MEAN_MOTION_DOT": -1e-06, "MEAN_MOTION_DDOT": 0}, "tle": {"line1": "1 40663U 15026A   25344.34188847 -.00000100  00000+0  00000+0 0  9994", "line2": "2 40663   0.0413  83.8732 0000508  61.1564 314.5037  1.00275799 38572"}}, "geometry": {"type": "Point", "coordinates": [-70.55273926031981, -0.03093738847640198]}}]}